$$SOE
2461288.500000000, A.D. 2026-Sep-05 00:00:00.0000, 1.613439068825912E+08, -4.136367455262204E+08, 9.008433687140438E+07,
2461295.500000000, A.D. 2026-Sep-12 00:00:00.0000, 1.704298475469862E+08, -4.086903822388905E+08, 9.097002658165823E+07,
2461302.500000000, A.D. 2026-Sep-19 00:00:00.0000, 1.794262415401402E+08, -4.035292818816832E+08, 9.180790937080745E+07,
2461309.500000000, A.D. 2026-Sep-26 00:00:00.0000, 1.883277397309716E+08, -3.981547636506947E+08, 9.259722772258724E+07,
2461316.500000000, A.D. 2026-Oct-03 00:00:00.0000, 1.971289759397232E+08, -3.925682840801650E+08, 9.333724128254676E+07,
2461323.500000000, A.D. 2026-Oct-10 00:00:00.0000, 2.058245702686717E+08, -3.867714394493626E+08, 9.402722784054738E+07,
2461330.500000000, A.D. 2026-Oct-17 00:00:00.0000, 2.144091325705855E+08, -3.807659682062746E+08, 9.466648433258712E+07,
2461337.500000000, A.D. 2026-Oct-24 00:00:00.0000, 2.228772660808748E+08, -3.745537534207193E+08, 9.525432785659848E+07,
2461344.500000000, A.D. 2026-Oct-31 00:00:00.0000, 2.312235713140127E+08, -3.681368253228210E+08, 9.579009668623550E+07,
2461351.500000000, A.D. 2026-Nov-07 00:00:00.0000, 2.394426505653860E+08, -3.615173638420535E+08, 9.627315125641599E+07,
2461358.500000000, A.D. 2026-Nov-14 00:00:00.0000, 2.475291132212246E+08, -3.546977002493746E+08, 9.670287517396565E+07,
2461365.500000000, A.D. 2026-Nov-21 00:00:00.0000, 2.554775800652282E+08, -3.476803172106359E+08, 9.707867647436804E+07,
2461372.500000000, A.D. 2026-Nov-28 00:00:00.0000, 2.632826855826165E+08, -3.404678502477968E+08, 9.739998896848357E+07,
2461379.500000000, A.D. 2026-Dec-05 00:00:00.0000, 2.709390818800089E+08, -3.330630912512674E+08, 9.766627329129374E+07,
2461386.500000000, A.D. 2026-Dec-12 00:00:00.0000, 2.784414443854295E+08, -3.254689909200984E+08, 9.787701789004144E+07,
2461393.500000000, A.D. 2026-Dec-19 00:00:00.0000, 2.857844774396515E+08, -3.176886601119257E+08, 9.803174012380400E+07,
2461400.500000000, A.D. 2026-Dec-26 00:00:00.0000, 2.929629196337119E+08, -3.097253709586936E+08, 9.812998741466232E+07,
2461407.500000000, A.D. 2027-Jan-02 00:00:00.0000, 2.999715491645662E+08, -3.015825579267640E+08, 9.817133840729676E+07,
2461414.500000000, A.D. 2027-Jan-09 00:00:00.0000, 3.068051893207664E+08, -2.932638187888818E+08, 9.815540412544312E+07,
2461421.500000000, A.D. 2027-Jan-16 00:00:00.0000, 3.134587141269528E+08, -2.847729154868233E+08, 9.808182911991471E+07,
2461428.500000000, A.D. 2027-Jan-23 00:00:00.0000, 3.199270541850276E+08, -2.761137749117399E+08, 9.795029259748861E+07,
2461435.500000000, A.D. 2027-Jan-30 00:00:00.0000, 3.262052028905162E+08, -2.672904896367624E+08, 9.776050950583650E+07,
2461442.500000000, A.D. 2027-Feb-06 00:00:00.0000, 3.322882234395403E+08, -2.583073182484654E+08, 9.751223155979307E+07,
2461449.500000000, A.D. 2027-Feb-13 00:00:00.0000, 3.381712561568248E+08, -2.491686840455170E+08, 9.720524834804244E+07,
2461456.500000000, A.D. 2027-Feb-20 00:00:00.0000, 3.438495237699293E+08, -2.398791728850425E+08, 9.683938866937201E+07,
2461463.500000000, A.D. 2027-Feb-27 00:00:00.0000, 3.493183360121223E+08, -2.304435333788344E+08, 9.641452170334040E+07,
2461470.500000000, A.D. 2027-Mar-06 00:00:00.0000, 3.545730965583904E+08, -2.208666775039920E+08, 9.593055789079009E+07,
2461477.500000000, A.D. 2027-Mar-13 00:00:00.0000, 3.596093106814916E+08, -2.111536795669363E+08, 9.538744983440489E+07,
2461484.500000000, A.D. 2027-Mar-20 00:00:00.0000, 3.644225924849654E+08, -2.013097743452327E+08, 9.478519325083120E+07,
2461491.500000000, A.D. 2027-Mar-27 00:00:00.0000, 3.690086719002131E+08, -1.913403549465823E+08, 9.412382790694600E+07,
2461498.500000000, A.D. 2027-Apr-03 00:00:00.0000, 3.733634016347067E+08, -1.812509704238244E+08, 9.340343851370899E+07,
2461505.500000000, A.D. 2027-Apr-10 00:00:00.0000, 3.774827641158884E+08, -1.710473231150284E+08, 9.262415556991352E+07,
2461512.500000000, A.D. 2027-Apr-17 00:00:00.0000, 3.813628784351128E+08, -1.607352657165230E+08, 9.178615614871557E+07,
2461519.500000000, A.D. 2027-Apr-24 00:00:00.0000, 3.850000073514434E+08, -1.503207981460404E+08, 9.088966461031473E+07,
2461526.500000000, A.D. 2027-May-01 00:00:00.0000, 3.883905646332793E+08, -1.398100641638460E+08, 8.993495321045585E+07,
2461533.500000000, A.D. 2027-May-08 00:00:00.0000, 3.915311230224602E+08, -1.292093469987795E+08, 8.892234263223262E+07,
2461540.500000000, A.D. 2027-May-15 00:00:00.0000, 3.944184213023763E+08, -1.185250630221555E+08, 8.785220265188953E+07,
2461547.500000000, A.D. 2027-May-22 00:00:00.0000, 3.970493688843812E+08, -1.077637560602146E+08, 8.672495286607456E+07,
2461554.500000000, A.D. 2027-May-29 00:00:00.0000, 3.994210512444242E+08, -9.693209381262374E+07, 8.554106304783815E+07,
2461561.500000000, A.D. 2027-Jun-05 00:00:00.0000, 4.015307370718849E+08, -8.603686324467456E+07, 8.430105330240160E+07,
2461568.500000000, A.D. 2027-Jun-12 00:00:00.0000, 4.033758851022146E+08, -7.508496452425051E+07, 8.300549424003607E+07,
2461575.500000000, A.D. 2027-Jun-19 00:00:00.0000, 4.049541502809101E+08, -6.408340444490992E+07, 8.165500711809699E+07,
2461582.500000000, A.D. 2027-Jun-26 00:00:00.0000, 4.062633895153763E+08, -5.303928960470940E+07, 8.025026390281963E+07,
2461589.500000000, A.D. 2027-Jul-03 00:00:00.0000, 4.073016671231217E+08, -4.195981934198185E+07, 7.879198723671764E+07,
2461596.500000000, A.D. 2027-Jul-10 00:00:00.0000, 4.080672599893993E+08, -3.085227843000359E+07, 7.728095030628839E+07,
2461603.500000000, A.D. 2027-Jul-17 00:00:00.0000, 4.085586624474273E+08, -1.972402958157137E+07, 7.571797660125139E+07,
2461610.500000000, A.D. 2027-Jul-24 00:00:00.0000, 4.087745910148503E+08, -8.582505840481367E+06, 7.410393954385281E+07,
2461617.500000000, A.D. 2027-Jul-31 00:00:00.0000, 4.087139893745518E+08, 2.564797359643716E+06, 7.243976196759814E+07,
2461624.500000000, A.D. 2027-Aug-07 00:00:00.0000, 4.083760333758729E+08, 1.371033160505904E+07, 7.072641555612884E+07,
2461631.500000000, A.D. 2027-Aug-14 00:00:00.0000, 4.077601337364420E+08, 2.484650611011969E+07, 6.896492043286227E+07,
2461638.500000000, A.D. 2027-Aug-21 00:00:00.0000, 4.068659370469411E+08, 3.596569613815121E+07, 6.715634457059267E+07,
2461645.500000000, A.D. 2027-Aug-28 00:00:00.0000, 4.056933284909332E+08, 4.706025041446783E+07, 6.530180280402593E+07,
2461652.500000000, A.D. 2027-Sep-04 00:00:00.0000, 4.042424350804158E+08, 5.812250001093818E+07, 6.340245575789013E+07,
2461659.500000000, A.D. 2027-Sep-11 00:00:00.0000, 4.025136279970741E+08, 6.914476801652434E+07, 6.145950876555362E+07,
2461666.500000000, A.D. 2027-Sep-18 00:00:00.0000, 4.005075241596836E+08, 8.011937931743121E+07, 5.947421071422934E+07,
2461673.500000000, A.D. 2027-Sep-25 00:00:00.0000, 3.982249872350931E+08, 9.103867038171440E+07, 5.744785279107454E+07,
2461680.500000000, A.D. 2027-Oct-02 00:00:00.0000, 3.956671281577764E+08, 1.018949990474316E+08, 5.538176712747653E+07,
2461687.500000000, A.D. 2027-Oct-09 00:00:00.0000, 3.928353051719174E+08, 1.126807542807579E+08, 5.327732534139222E+07,
2461694.500000000, A.D. 2027-Oct-16 00:00:00.0000, 3.897311234526823E+08, 1.233883658198515E+08, 5.113593697029161E+07,
2461701.500000000, A.D. 2027-Oct-23 00:00:00.0000, 3.863564345624074E+08, 1.340103136690132E+08, 4.895904777379353E+07,
2461708.500000000, A.D. 2027-Oct-30 00:00:00.0000, 3.827133361134951E+08, 1.445391380227841E+08, 4.674813792508063E+07,
2461715.500000000, A.D. 2027-Nov-06 00:00:00.0000, 3.788041704718884E+08, 1.549674507188656E+08, 4.450472029412269E+07,
2461722.500000000, A.D. 2027-Nov-13 00:00:00.0000, 3.746315205195624E+08, 1.652879461175590E+08, 4.223033884146149E+07,
2461729.500000000, A.D. 2027-Nov-20 00:00:00.0000, 3.701982053883257E+08, 1.754934091926209E+08, 3.992656668452307E+07,
2461736.500000000, A.D. 2027-Nov-27 00:00:00.0000, 3.655072777903762E+08, 1.855767237662336E+08, 3.759500393578867E+07,
2461743.500000000, A.D. 2027-Dec-04 00:00:00.0000, 3.605620209303378E+08, 1.955308817726133E+08, 3.523727557893932E+07,
2461750.500000000, A.D. 2027-Dec-11 00:00:00.0000, 3.553659444600316E+08, 2.053489925583495E+08, 3.285502936116843E+07,
2461757.500000000, A.D. 2027-Dec-18 00:00:00.0000, 3.499227797650871E+08, 2.150242918531888E+08, 3.044993365536298E+07,
2461764.500000000, A.D. 2027-Dec-25 00:00:00.0000, 3.442364747512999E+08, 2.245501503830475E+08, 2.802367528476082E+07,
2461771.500000000, A.D. 2028-Jan-01 00:00:00.0000, 3.383111881899737E+08, 2.339200821151007E+08, 2.557795731431834E+07,
$$EOE